0 COSMOS 718
1 07685U 75016H   13282.08072872  .00000013  00000-0  18462-3 0  9454
2 07685 074.0017 283.1419 0038238 157.4444 288.8836 12.51326048763920
0 COSMOS 718
1 07685U 75016H   13284.15599854  .00000003  00000-0  12326-3 0  9461
2 07685 074.0017 280.3723 0038211 154.2970 277.5316 12.51326314764180
0 COSMOS 718
1 07685U 75016H   13286.16029760 -.00000030  00000-0 -93553-4 0  9473
2 07685 074.0018 277.6973 0038186 151.2316 306.4979 12.51326550764436
0 COSMOS 718
1 07685U 75016H   13288.41421010 -.00000033  00000-0 -11316-3 0  9487
2 07685 074.0021 274.6889 0038166 147.8287 019.8813 12.51326623764713
0 COSMOS 718
1 07685U 75016H   13290.47735203 -.00000015  00000-0  34845-5 0  9492
2 07685 074.0025 271.9354 0038137 144.6941 313.9058 12.51326498764971
0 COSMOS 718
1 07685U 75016H   13292.64014128  .00000007  00000-0  14669-3 0  9501
2 07685 074.0028 269.0491 0038104 141.3757 336.8527 12.51326244765242
0 COSMOS 718
1 07685U 75016H   13294.85454493  .00000016  00000-0  20454-3 0  9519
2 07685 074.0029 266.0940 0038082 137.9719 232.3162 12.51326195765524
